{
  "type": "FeatureCollection",
  "features": [
    {
      "type": "Feature",
      "properties": {},
      "geometry": {
        "coordinates": [
          [
            [
              5.6598674399928655,
              51.987536473521004
            ],
            [
              5.653982656697167,
              51.995090044138806
            ],
            [
              5.645684005900222,
              51.99332380195665
            ],
            [
              5.644053473987327,
              51.995410398505896
            ],
            [
              5.632599523522003,
              51.99587439674835
            ],
            [
              5.623540555760144,
              51.99648499662379
            ],
            [
              5.630343510669547,
              51.99019928687676
            ],
            [
              5.635974331246274,
              51.982494356836355
            ],
            [
              5.6598674399928655,
              51.987536473521004
            ]
          ]
        ],
        "type": "Polygon"
      }
    }
  ]
}
